[{"OBJECT_NAME":"STARLINK-35263","OBJECT_ID":"2025-207F","EPOCH":"2026-03-09T16:56:44.925792","MEAN_MOTION":15.0564883,"ECCENTRICITY":8.347e-5,"INCLINATION":97.6026,"RA_OF_ASC_NODE":138.6761,"ARG_OF_PERICENTER":95.0935,"MEAN_ANOMALY":265.0387,"EPHEMERIS_TYPE":0,"CLASSIFICATION_TYPE":"U","NORAD_CAT_ID":65597,"ELEMENT_SET_NO":999,"REV_AT_EPOCH":2826,"BSTAR":0.00019501353,"MEAN_MOTION_DOT":2.754e-5,"MEAN_MOTION_DDOT":0},{"OBJECT_NAME":"SL-8 R\/B","OBJECT_ID":"1968-040B","EPOCH":"2026-03-09T18:37:46.369632","MEAN_MOTION":15.03260494,"ECCENTRICITY":0.00239141,"INCLINATION":74.0322,"RA_OF_ASC_NODE":313.5182,"ARG_OF_PERICENTER":137.361,"MEAN_ANOMALY":222.9441,"EPHEMERIS_TYPE":0,"CLASSIFICATION_TYPE":"U","NORAD_CAT_ID":3230,"ELEMENT_SET_NO":999,"REV_AT_EPOCH":9002,"BSTAR":0.00025747843,"MEAN_MOTION_DOT":3.469e-5,"MEAN_MOTION_DDOT":0}]
